{"fetched_at":"2026-03-29T16:36:15Z","count":15609,"tles":[{"name":"STARLINK-35476","line1":"1 66825U 25280E   26087.92461191  .00000265  00000+0  30001-4 0  9990","line2":"2 66825  69.9999 286.0947 0003041 270.3669  89.7141 14.98326458 18950","category":"Starlink"}]}